HST                     
1 20580U 90037B   22116.49992763  .00002285  00000+0  12499-3 0  9999
2 20580  28.4691 152.9987 0002635 188.3112 285.5989 15.10337318558352
POLAR                   
1 23802U 96013A   22114.88416438  .00000162  00000+0  00000+0 0  9993
2 23802  78.7546 242.1492 5835564 260.6957  32.5824  1.29846900125190
SWAS                    
1 25560U 98071A   22116.51188766  .00001222  00000+0  12117-3 0  9998
2 25560  69.8967 117.0356 0006227  15.9850 344.1502 14.94580736270266
CXO                     
1 25867U 99040B   22117.80215601  .00000701  00000+0  00000+0 0  9992
2 25867  46.7798 238.7405 8761990 232.1324   0.0443  0.37803654 11613
XMM-NEWTON              
1 25989U 99066A   22106.66494330  .00000009  00000+0  00000+0 0  9996
2 25989  70.2412 305.8618 6129891  87.4900 359.8179  0.50134260 15375
TERRA                   
1 25994U 99068A   22116.50317906  .00000330  00000+0  83118-4 0  9994
2 25994  98.1391 189.6077 0001360  98.4098  15.2234 14.57138710189055
CLUSTER II-FM7 (SAMBA)  
1 26410U 00041A   22119.13325404  .00000352  00000+0  00000+0 0  9993
2 26410 133.9406 347.2889 5539528 198.4320   0.5172  0.44212750 13594
CLUSTER II-FM6 (SALSA)  
1 26411U 00041B   22119.10358239  .00000285  00000+0  00000+0 0  9998
2 26411 135.9069 350.4870 7174411 203.0699   0.5583  0.44218734 13637
CLUSTER II-FM5 (RUMBA)  
1 26463U 00045A   22119.10751451  .00000384  00000+0  00000+0 0  9992
2 26463 139.4785 350.7550 6692780 203.8224   0.5309  0.44218443 13522
CLUSTER II-FM8 (TANGO)  
1 26464U 00045B   22119.11204692  .00000351  00000+0  00000+0 0  9998
2 26464 133.9347 347.2815 5536134 198.4156   0.5434  0.44219357 13606
ODIN                    
1 26702U 01007A   22116.49409192  .00003116  00000+0  19773-3 0  9995
2 26702  97.5243 132.1913 0012453 106.6615 253.5982 15.09555982158433
TIMED                   
1 26998U 01055B   22116.22673090  .00001020  00000+0  11354-3 0  9995
2 26998  74.0747  23.6854 0002246 264.3901  95.7024 14.88582033105232
RHESSI                  
1 27370U 02004A   22116.29207757  .00026774  00000+0  62457-3 0  9998
2 27370  38.0329 327.5287 0005398 134.5880 225.5335 15.41435677118552
INTEGRAL                
1 27540U 02048A   22111.40871446  .00000052  00000+0  00000+0 0  9998
2 27540  73.6309  63.0040 8929725 299.0752 348.9600  0.37585826 20935
CORIOLIS                
1 27640U 03001A   22116.51063568  .00000090  00000+0  64124-4 0  9998
2 27640  98.7195 126.3252 0013128 245.2202 266.7689 14.19119253999583
SORCE                   
1 27651U 03004A   22116.38168518  .00001287  00000+0  14558-3 0  9993
2 27651  39.9941 148.2113 0022165 107.4888 252.8326 14.89758050 45307
MOST                    
1 27843U 03031D   22116.44826244  .00000074  00000+0  54659-4 0  9990
2 27843  98.7093 124.8144 0009006 301.7840  58.2459 14.20675257975861
SCISAT 1                
1 27858U 03036A   22116.51070661  .00000520  00000+0  77780-4 0  9999
2 27858  73.9316 286.6409 0008464 329.7499  30.3185 14.77506562  7764
SWIFT                   
1 28485U 04047A   22116.23722010  .00004547  00000+0  27230-3 0  9997
2 28485  20.5571 316.8686 0010840 358.2700   1.7696 15.06050365955666
CLOUDSAT                
1 29107U 06016A   22116.49019771  .00000313  00000+0  70657-4 0  9997
2 29107  98.3237  76.1697 0004584 102.3188 257.8527 14.62944907851436
CALIPSO                 
1 29108U 06016B   22116.48735901  .00000973  00000+0  20009-3 0  9994
2 29108  98.3208  75.7556 0001369  86.3375 273.7983 14.62842461851425
HINODE (SOLAR-B)        
1 29479U 06041A   22116.45804943  .00000607  00000+0  12270-3 0  9998
2 29479  98.1244 132.2763 0019267  33.6103 326.6318 14.64760327833144
SJ-6C                   
1 29505U 06046A   22116.52155105  .00002143  00000+0  19708-3 0  9990
2 29505  97.7815 137.8837 0003280 310.6101  49.4852 14.95838793844939
SJ-6D                   
1 29506U 06046B   22116.50445196  .00001286  00000+0  12621-3 0  9995
2 29506  97.8020 138.0472 0003329  55.7208 304.4318 14.93939776844387
AGILE                   
1 31135U 07013A   22115.01722176  .00013426  00000+0  32703-3 0  9994
2 31135   2.4674 293.2135 0010674 330.1597  29.7849 15.36727618468710
AIM                     
1 31304U 07015A   22116.49396144  .00008597  00000+0  44096-3 0  9990
2 31304  97.8570  33.7892 0004860 171.7271 188.4042 15.16797222823311
FGRST (GLAST)           
1 33053U 08029A   22116.49880383  .00002008  00000+0  96807-4 0  9991
2 33053  25.5816 161.4082 0011705 298.6415  61.2943 15.12028307765826
WISE                    
1 36119U 09071A   22116.11924945  .00007419  00000+0  23604-3 0  9992
2 36119  97.2456 151.5957 0004149 115.0341 245.1333 15.32871237687484
SDO                     
1 36395U 10005A   22116.50813229 -.00000047  00000+0  00000+0 0  9994
2 36395  31.5562 110.0557 0002065 255.6486 289.8939  1.00273005 44899
CRYOSAT 2               
1 36508U 10013A   22116.56432458  .00000183  00000+0  44775-4 0  9998
2 36508  92.0282 271.4839 0007772  72.6538 287.5519 14.51904687638600
X-SAT                   
1 37389U 11015C   22116.52764022  .00000057  00000+0  42055-4 0  9999
2 37389  98.3408 152.4166 0015449 102.9742 257.3168 14.24415701572811
GCOM-W1 (SHIZUKU)       
1 38337U 12025A   22116.45885854  .00000479  00000+0  11634-3 0  9990
2 38337  98.1993  57.7474 0001816  70.6598  43.0597 14.57105329528741
NUSTAR                  
1 38358U 12031A   22115.01103291  .00003282  00000+0  26457-3 0  9993
2 38358   6.0279  32.5301 0012386 285.0475  74.8283 14.89138240536879
NEOSSAT                 
1 39089U 13009D   22116.49991188  .00000154  00000+0  69496-4 0  9990
2 39089  98.4262 314.0983 0012484  73.8827 286.3732 14.34643571479766
BRITE-AUSTRIA           
1 39091U 13009F   22116.48661047  .00000163  00000+0  71692-4 0  9991
2 39091  98.4099 315.1322 0011644  74.8869 285.3604 14.35254327479978
IRIS                    
1 39197U 13033A   22116.49675494  .00000887  00000+0  12611-3 0  9995
2 39197  97.9706 302.8045 0027139 194.4071 165.6369 14.79144089476290
HISAKI (SPRINT-A)       
1 39253U 13049A   22116.29989440  .00000172  00000+0  14745-3 0  9999
2 39253  29.7217 349.7853 0136834 354.3333   5.5693 13.55273430426025
CASSIOPE                
1 39265U 13055A   22116.53979415  .00016516  00000+0  44083-3 0  9994
2 39265  80.9643 322.3498 0628821 111.9546 254.9676 14.37378076444874
STSAT-3                 
1 39422U 13066G   22116.32209067  .00002516  00000+0  26271-3 0  9991
2 39422  97.4722 124.2837 0024562  95.6257 264.7764 14.90337289458079
SWARM B                 
1 39451U 13067A   22116.54284248  .00002583  00000+0  11766-3 0  9999
2 39451  87.7481  76.8375 0003263  92.9874 267.1744 15.20234212453047
SWARM A                 
1 39452U 13067B   22116.53763416  .00009653  00000+0  18260-3 0  9999
2 39452  87.3602 243.3827 0001930 108.5636 251.5833 15.48230721473927
SWARM C                 
1 39453U 13067C   22116.53752152  .00009778  00000+0  18496-3 0  9994
2 39453  87.3455 242.9599 0001935 108.7373 251.4097 15.48230965473886
BRITE-CA1 (TORONTO)     
1 40020U 14033L   22116.44389148  .00000749  00000+0  13437-3 0  9990
2 40020  97.7725 278.0701 0088232  69.7734 291.2931 14.66973110420033
OCO 2                   
1 40059U 14035A   22116.57109945  .00000420  00000+0  10333-3 0  9991
2 40059  98.1987  58.5942 0001187  97.4810 262.6524 14.57101539415778
BRITE-PL2 (HEWELIUSZ)   
1 40119U 14049B   22116.53016468  .00001207  00000+0  14745-3 0  9991
2 40119  97.8805 212.7030 0018346  55.2282 305.0656 14.85001347416307
RESURS P2               
1 40360U 14087A   22116.51068399  .00006588  00000+0  18997-3 0  9999
2 40360  97.2062 202.4706 0007608 277.8176 178.5541 15.36015727410284
MMS 1                   
1 40482U 15011A   22115.16666667 -.00000379  00000+0  00000+0 0  9999
2 40482  32.7764 107.7230 8627353  48.8474  47.2662  0.28420995 13154
MMS 2                   
1 40483U 15011B   22115.16666667 -.00000380  00000+0  00000+0 0  9992
2 40483  32.7750 107.7294 8628588  48.8412  47.2699  0.28420957 13218
MMS 3                   
1 40484U 15011C   22104.12500000 -.00000344  00000+0  00000+0 0  9995
2 40484  32.6816 107.8451 8599250  48.4643 357.7810  0.28421329 13096
MMS 4                   
1 40485U 15011D   22115.16666667 -.00000379  00000+0  00000+0 0  9992
2 40485  32.7800 107.7320 8627690  48.8316  47.2567  0.28424906 13102
ASTROSAT                
1 40930U 15052A   22116.26094195  .00001458  00000+0  11495-3 0  9997
2 40930   5.9956 190.4616 0008348 139.6312 220.4435 14.76567536355426
DAMPE                   
1 41173U 15078A   22116.48889314  .00001272  00000+0  54803-4 0  9999
2 41173  97.3757 108.0630 0014706  29.6989  85.6687 15.24331724353660
PISAT                   
1 41784U 16059B   22116.12387923  .00000590  00000+0  12110-3 0  9993
2 41784  97.9214 161.4989 0031106 337.4082  22.5750 14.63835987298031
HXMT (HUIYAN)           
1 42758U 17034A   22116.56459189  .00003944  00000+0  25069-3 0  9994
2 42758  43.0182 273.6441 0009820 311.3281 133.1805 15.10134743268333
FLYING LAPTOP           
1 42831U 17042G   22116.40987459  .00001167  00000+0  12112-3 0  9994
2 42831  97.4307 333.8805 0013958 175.2007 184.9360 14.91659062260336
PICSAT                  
1 43132U 18004X   22116.45788499  .00015509  00000+0  53835-3 0  9998
2 43132  97.3741 193.1713 0008629 174.2157 185.9185 15.29830798238454
ZHANGZHENG-1 (CSES)     
1 43194U 18015C   22116.61617279  .00009268  00000+0  42193-3 0  9993
2 43194  97.5139 247.4665 0008015 298.0796 117.6796 15.20891401234744
ICON                    
1 44628U 19068A   22116.55370768  .00003056  00000+0  26988-3 0  9990
2 44628  26.9894 287.7835 0018674 140.4208 219.7716 14.92613564138803
SALSAT                  
1 46495U 20068K   22116.41534939  .00002237  00000+0  16488-3 0  9997
2 46495  97.7260  57.7232 0018741  93.3326 267.0044 15.04224928 86367
IXPE                    
1 49954U 21121A   22114.07588373  .00003389  00000+0  25742-3 0  9994
2 49954   0.2309  61.4643 0011298 215.6591  82.7484 14.91146981 20291
